$$SOE
2459580.500000000, A.D. 2022-Jan-01 00:00:00.0000, 1.174197555386564E+09, 4.816307267723374E+07, -8.159646612890923E+07,
2459587.500000000, A.D. 2022-Jan-08 00:00:00.0000, 1.174196687395048E+09, 5.378707312120508E+07, -7.926928869182034E+07,
2459594.500000000, A.D. 2022-Jan-15 00:00:00.0000, 1.174160760848250E+09, 5.940940419267193E+07, -7.693973979421422E+07,
2459601.500000000, A.D. 2022-Jan-22 00:00:00.0000, 1.174089786256866E+09, 6.502989688496158E+07, -7.460788976385555E+07,
2459608.500000000, A.D. 2022-Jan-29 00:00:00.0000, 1.173983775389236E+09, 7.064838477395314E+07, -7.227380885839498E+07,
2459615.500000000, A.D. 2022-Feb-05 00:00:00.0000, 1.173842739063579E+09, 7.626470334756559E+07, -6.993756711811239E+07,
2459622.500000000, A.D. 2022-Feb-12 00:00:00.0000, 1.173666687113653E+09, 8.187868826700331E+07, -6.759923450371751E+07,
2459629.500000000, A.D. 2022-Feb-19 00:00:00.0000, 1.173455629203022E+09, 8.749017492876774E+07, -6.525888100420170E+07,
2459636.500000000, A.D. 2022-Feb-26 00:00:00.0000, 1.173209575176547E+09, 9.309899860445736E+07, -6.291657665372145E+07,
2459643.500000000, A.D. 2022-Mar-05 00:00:00.0000, 1.172928535108397E+09, 9.870499454149640E+07, -6.057239152278508E+07,
2459650.500000000, A.D. 2022-Mar-12 00:00:00.0000, 1.172612519268394E+09, 1.043079979591611E+08, -5.822639570974448E+07,
2459657.500000000, A.D. 2022-Mar-19 00:00:00.0000, 1.172261538077768E+09, 1.099078439680921E+08, -5.587865933711884E+07,
2459664.500000000, A.D. 2022-Mar-26 00:00:00.0000, 1.171875602076727E+09, 1.155043674075434E+08, -5.352925255557765E+07,
2459671.500000000, A.D. 2022-Apr-02 00:00:00.0000, 1.171454721971671E+09, 1.210974025447473E+08, -5.117824556662887E+07,
2459678.500000000, A.D. 2022-Apr-09 00:00:00.0000, 1.170998909034088E+09, 1.266867826414484E+08, -4.882570868879298E+07,
2459685.500000000, A.D. 2022-Apr-16 00:00:00.0000, 1.170508176208266E+09, 1.322723400418956E+08, -4.647171244675092E+07,
2459692.500000000, A.D. 2022-Apr-23 00:00:00.0000, 1.169982538658921E+09, 1.378539078667713E+08, -4.411632747860042E+07,
2459699.500000000, A.D. 2022-Apr-30 00:00:00.0000, 1.169422011888660E+09, 1.434313210679821E+08, -4.175962427324942E+07,
2459706.500000000, A.D. 2022-May-07 00:00:00.0000, 1.168826610488038E+09, 1.490044148708380E+08, -3.940167318021651E+07,
2459713.500000000, A.D. 2022-May-14 00:00:00.0000, 1.168196348907604E+09, 1.545730236418699E+08, -3.704254457103410E+07,
2459720.500000000, A.D. 2022-May-21 00:00:00.0000, 1.167531242220811E+09, 1.601369809410831E+08, -3.468230890395010E+07,
2459727.500000000, A.D. 2022-May-28 00:00:00.0000, 1.166831306399026E+09, 1.656961197999482E+08, -3.232103672634374E+07,
2459734.500000000, A.D. 2022-Jun-04 00:00:00.0000, 1.166096558375758E+09, 1.712502729123961E+08, -2.995879866580703E+07,
2459741.500000000, A.D. 2022-Jun-11 00:00:00.0000, 1.165327016044812E+09, 1.767992727411344E+08, -2.759566542293654E+07,
2459748.500000000, A.D. 2022-Jun-18 00:00:00.0000, 1.164522698231087E+09, 1.823429515527519E+08, -2.523170776823531E+07,
2459755.500000000, A.D. 2022-Jun-25 00:00:00.0000, 1.163683624663485E+09, 1.878811413486651E+08, -2.286699654845107E+07,
2459762.500000000, A.D. 2022-Jul-02 00:00:00.0000, 1.162809816083988E+09, 1.934136736264093E+08, -2.050160271991050E+07,
2459769.500000000, A.D. 2022-Jul-09 00:00:00.0000, 1.161901294883197E+09, 1.989403791484713E+08, -1.813559743005489E+07,
2459776.500000000, A.D. 2022-Jul-16 00:00:00.0000, 1.160958086207145E+09, 2.044610888016434E+08, -1.576905205347177E+07,
2459783.500000000, A.D. 2022-Jul-23 00:00:00.0000, 1.159980217337000E+09, 2.099756356247492E+08, -1.340203797423092E+07,
2459790.500000000, A.D. 2022-Jul-30 00:00:00.0000, 1.158967715425835E+09, 2.154838546508850E+08, -1.103462639610071E+07,
2459797.500000000, A.D. 2022-Aug-06 00:00:00.0000, 1.157920607191252E+09, 2.209855812122783E+08, -8.666888457549274E+06,
2459804.500000000, A.D. 2022-Aug-13 00:00:00.0000, 1.156838919740679E+09, 2.264806504621865E+08, -6.298895350679129E+06,
2459811.500000000, A.D. 2022-Aug-20 00:00:00.0000, 1.155722680959946E+09, 2.319688976104325E+08, -3.930718341033876E+06,
2459818.500000000, A.D. 2022-Aug-27 00:00:00.0000, 1.154571919533325E+09, 2.374501581459971E+08, -1.562428753667623E+06,
2459825.500000000, A.D. 2022-Sep-03 00:00:00.0000, 1.153386664842928E+09, 2.429242679361087E+08, 8.059020429345816E+05,
2459832.500000000, A.D. 2022-Sep-10 00:00:00.0000, 1.152166946837573E+09, 2.483910632257252E+08, 3.174202648907959E+06,
2459839.500000000, A.D. 2022-Sep-17 00:00:00.0000, 1.150912795900512E+09, 2.538503805356558E+08, 5.542401638244122E+06,
2459846.500000000, A.D. 2022-Sep-24 00:00:00.0000, 1.149624242776432E+09, 2.593020564084260E+08, 7.910427547487155E+06,
2459853.500000000, A.D. 2022-Oct-01 00:00:00.0000, 1.148301318797700E+09, 2.647459269795698E+08, 1.027820882394281E+07,
2459860.500000000, A.D. 2022-Oct-08 00:00:00.0000, 1.146944056817118E+09, 2.701818278964005E+08, 1.264567373852296E+07,
2459867.500000000, A.D. 2022-Oct-15 00:00:00.0000, 1.145552491915278E+09, 2.756095957834428E+08, 1.501275044645548E+07,
2459874.500000000, A.D. 2022-Oct-22 00:00:00.0000, 1.144126659700943E+09, 2.810290695706694E+08, 1.737936725809404E+07,
2459881.500000000, A.D. 2022-Oct-29 00:00:00.0000, 1.142666594702293E+09, 2.864400890910537E+08, 1.974545267849131E+07,
2459888.500000000, A.D. 2022-Nov-05 00:00:00.0000, 1.141172330948346E+09, 2.918424936885486E+08, 2.211093524690092E+07,
2459895.500000000, A.D. 2022-Nov-12 00:00:00.0000, 1.139643902775671E+09, 2.972361221037101E+08, 2.447574345974706E+07,
2459902.500000000, A.D. 2022-Nov-19 00:00:00.0000, 1.138081345141006E+09, 3.026208126828666E+08, 2.683980576487650E+07,
2459909.500000000, A.D. 2022-Nov-26 00:00:00.0000, 1.136484693702002E+09, 3.079964035135106E+08, 2.920305057042058E+07,
2459916.500000000, A.D. 2022-Dec-03 00:00:00.0000, 1.134853984832126E+09, 3.133627324743866E+08, 3.156540625199376E+07,
2459923.500000000, A.D. 2022-Dec-10 00:00:00.0000, 1.133189255615248E+09, 3.187196372189646E+08, 3.392680115552571E+07,
2459930.500000000, A.D. 2022-Dec-17 00:00:00.0000, 1.131490543844632E+09, 3.240669550673074E+08, 3.628716359140037E+07,
2459937.500000000, A.D. 2022-Dec-24 00:00:00.0000, 1.129757888135731E+09, 3.294045227404886E+08, 3.864642180450290E+07,
2459944.500000000, A.D. 2022-Dec-31 00:00:00.0000, 1.127991328510405E+09, 3.347321760450597E+08, 4.100450389619009E+07,
2459951.500000000, A.D. 2023-Jan-07 00:00:00.0000, 1.126190907575254E+09, 3.400497504699324E+08, 4.336133776561968E+07,
2459958.500000000, A.D. 2023-Jan-14 00:00:00.0000, 1.124356670326994E+09, 3.453570831924965E+08, 4.571685129152004E+07,
2459965.500000000, A.D. 2023-Jan-21 00:00:00.0000, 1.122488661940156E+09, 3.506540133213668E+08, 4.807097255433826E+07,
2459972.500000000, A.D. 2023-Jan-28 00:00:00.0000, 1.120586927205130E+09, 3.559403801802350E+08, 5.042362974641179E+07,
2459979.500000000, A.D. 2023-Feb-04 00:00:00.0000, 1.118651511407941E+09, 3.612160226605331E+08, 5.277475103678240E+07,
2459986.500000000, A.D. 2023-Feb-11 00:00:00.0000, 1.116682460856485E+09, 3.664807794493843E+08, 5.512426453958331E+07,
2459993.500000000, A.D. 2023-Feb-18 00:00:00.0000, 1.114679822990009E+09, 3.717344893098149E+08, 5.747209832463244E+07,
2460000.500000000, A.D. 2023-Feb-25 00:00:00.0000, 1.112643646334699E+09, 3.769769912516456E+08, 5.981818043303342E+07,
2460007.500000000, A.D. 2023-Mar-04 00:00:00.0000, 1.110573980407751E+09, 3.822081246121255E+08, 6.216243889009391E+07,
2460014.500000000, A.D. 2023-Mar-11 00:00:00.0000, 1.108470875598718E+09, 3.874277290470817E+08, 6.450480171315622E+07,
2460021.500000000, A.D. 2023-Mar-18 00:00:00.0000, 1.106334383075418E+09, 3.926356443833811E+08, 6.684519690617688E+07,
2460028.500000000, A.D. 2023-Mar-25 00:00:00.0000, 1.104164554917936E+09, 3.978317102857561E+08, 6.918355241876221E+07,
2460035.500000000, A.D. 2023-Apr-01 00:00:00.0000, 1.101961444905440E+09, 4.030157661316146E+08, 7.151979606307942E+07,
2460042.500000000, A.D. 2023-Apr-08 00:00:00.0000, 1.099725109340552E+09, 4.081876523190114E+08, 7.385385554538512E+07,
2460049.500000000, A.D. 2023-Apr-15 00:00:00.0000, 1.097455605574368E+09, 4.133472119018157E+08, 7.618565873630270E+07,
2460056.500000000, A.D. 2023-Apr-22 00:00:00.0000, 1.095152990041469E+09, 4.184942895002733E+08, 7.851513376460823E+07,
2460063.500000000, A.D. 2023-Apr-29 00:00:00.0000, 1.092817318540031E+09, 4.236287297398995E+08, 8.084220886779687E+07,
2460070.500000000, A.D. 2023-May-06 00:00:00.0000, 1.090448646996850E+09, 4.287503769999281E+08, 8.316681230639726E+07,
2460077.500000000, A.D. 2023-May-13 00:00:00.0000, 1.088047031740480E+09, 4.338590755779036E+08, 8.548887235849574E+07,
2460084.500000000, A.D. 2023-May-20 00:00:00.0000, 1.085612529516693E+09, 4.389546697794386E+08, 8.780831733268225E+07,
2460091.500000000, A.D. 2023-May-27 00:00:00.0000, 1.083145197439752E+09, 4.440370039038056E+08, 9.012507557902828E+07,
2460098.500000000, A.D. 2023-Jun-03 00:00:00.0000, 1.080645092937112E+09, 4.491059221514379E+08, 9.243907549466890E+07,
2460105.500000000, A.D. 2023-Jun-10 00:00:00.0000, 1.078112273711356E+09, 4.541612684396590E+08, 9.475024552039647E+07,
2460112.500000000, A.D. 2023-Jun-17 00:00:00.0000, 1.075546797808413E+09, 4.592028860666116E+08, 9.705851411491475E+07,
2460119.500000000, A.D. 2023-Jun-24 00:00:00.0000, 1.072948724112067E+09, 4.642306172790701E+08, 9.936380968169224E+07,
2460126.500000000, A.D. 2023-Jul-01 00:00:00.0000, 1.070318113517913E+09, 4.692443035722800E+08, 1.016660604926527E+08,
2460133.500000000, A.D. 2023-Jul-08 00:00:00.0000, 1.067655029112739E+09, 4.742437875439538E+08, 1.039651948292505E+08,
2460140.500000000, A.D. 2023-Jul-15 00:00:00.0000, 1.064959534082600E+09, 4.792289134727415E+08, 1.062611412266751E+08,
2460147.500000000, A.D. 2023-Jul-22 00:00:00.0000, 1.062231690871066E+09, 4.841995255868335E+08, 1.085538284135791E+08,
$$EOE